0 FENGYUN 1C DEB
1 30420U 99025AEK 13282.85713252  .00003323  00000-0  48413-3 0  9638
2 30420 098.9714 138.7462 0197467 029.0830 096.5932 14.64213074357311
0 FENGYUN 1C DEB
1 30420U 99025AEK 13284.14952344  .00004021  00000-0  58354-3 0  9641
2 30420 098.9713 140.1540 0197449 025.1222 069.0010 14.64218723357505
0 FENGYUN 1C DEB
1 30420U 99025AEK 13285.17458846  .00003361  00000-0  48956-3 0  9657
2 30420 098.9713 141.2709 0197415 021.9901 072.3071 14.64225947357651
0 FENGYUN 1C DEB
1 30420U 99025AEK 13286.19928020  .00003743  00000-0  54404-3 0  9666
2 30420 098.9711 142.3875 0197325 018.8505 073.6796 14.64232554357807
0 FENGYUN 1C DEB
1 30420U 99025AEK 13287.84573904  .00004937  00000-0  71438-3 0  9679
2 30420 098.9703 144.1818 0197147 013.8083 112.5708 14.64244633358047
0 FENGYUN 1C DEB
1 30420U 99025AEK 13288.86957988  .00005636  00000-0  81385-3 0  9680
2 30420 098.9702 145.2969 0197084 010.6607 109.5512 14.64256216358197
0 FENGYUN 1C DEB
1 30420U 99025AEK 13290.16715941  .00005207  00000-0  75277-3 0  9695
2 30420 098.9697 146.7110 0196991 006.6861 109.5264 14.64267683358382
0 FENGYUN 1C DEB
1 30420U 99025AEK 13291.52441660  .00005454  00000-0  78804-3 0  9705
2 30420 098.9691 148.1901 0196891 002.5236 064.1491 14.64278219358587
0 FENGYUN 1C DEB
1 30420U 99025AEK 13292.90177554  .00004985  00000-0  72123-3 0  9713
2 30420 098.9688 149.6910 0196765 358.2858 124.8042 14.64291156358783
0 FENGYUN 1C DEB
1 30420U 99025AEK 13294.19876484  .00005763  00000-0  83215-3 0  9724
2 30420 098.9687 151.1043 0196695 354.3181 121.8273 14.64299944358972
0 FENGYUN 1C DEB
1 30420U 99025AEK 13295.55333536  .00006349  00000-0  91558-3 0  9732
2 30420 098.9687 152.5803 0196580 350.1603 062.4534 14.64313345359172
